JY1SAT (JO-97)          
1 43803U 18099AX  26068.68634132  .00017774  00000+0  60804-3 0  9996
2 43803  97.4249 131.3625 0004723 256.6795 103.3919 15.30302628398390
STARLINK-36396          
1 67494U 26012B   26068.05633673  .00032110  00000+0  11705-2 0  9998
2 67494  42.9987 318.1145 0001457  44.7291 315.3678 15.27601176  7666
